NORAD_CAT_ID,OBJECT_NAME,OBJECT_TYPE,EPOCH,MEAN_MOTION,ECCENTRICITY,INCLINATION,RA_OF_ASC_NODE,ARG_OF_PERICENTER,MEAN_ANOMALY,BSTAR,MEAN_MOTION_DOT,MEAN_MOTION_DDOT,TLE_LINE0,TLE_LINE1,TLE_LINE2,SEMIMAJOR_AXIS,PERIOD,APOGEE,PERIGEE,DECAYED
52626.0,STARLINK-3990,PAYLOAD,2022-06-20 04:00:01,15.73123888,0.0002114,53.2124,259.8081,28.434,101.7794,0.00065494,0.00092012,0.0,0 STARLINK-3990,1 52626U 22052AE  22171.16668981  .00092012  00000-0  65494-3 0  9995,2 52626  53.2124 259.8081 0002114  28.4340 101.7794 15.73123888  6104,6728.111999999999,91.538,351.4,348.555,0.0
52626.0,STARLINK-3990,PAYLOAD,2022-06-20 14:00:01,15.73192513,0.000242,53.2137,257.7482,25.1276,306.1257,0.00023626,0.00032658,0.0,0 STARLINK-3990,1 52626U 22052AE  22171.58334491  .00032658  00000-0  23626-3 0  9998,2 52626  53.2137 257.7482 0002420  25.1276 306.1257 15.73192513  1305,6727.917,91.534,351.41,348.153,0.0
52626.0,STARLINK-3990,PAYLOAD,2022-06-20 20:00:01,15.73180211,0.0002368,53.2128,256.5104,19.6761,288.3831,0.00019299,0.00026529,0.0,0 STARLINK-3990,1 52626U 22052AE  22171.83334491  .00026529  00000-0  19299-3 0  9997,2 52626  53.2128 256.5104 0002368  19.6761 288.3831 15.73180211  6206,6727.9519999999975,91.534,351.41,348.223,0.0
52626.0,STARLINK-3990,PAYLOAD,2022-06-20 22:00:00,15.73189819,0.0002297,53.2129,256.0974,20.072,40.2116,0.00015837,0.00021654,0.0,0 STARLINK-3990,1 52626U 22052AE  22171.91667824  .00021654  00000-0  15837-3 0  9993,2 52626  53.2129 256.0974 0002297  20.0720  40.2116 15.73189819  1309,6727.924,91.534,351.335,348.244,0.0
52626.0,STARLINK-3990,PAYLOAD,2022-06-21 14:00:01,15.73176372,0.0002624,53.2129,252.7994,25.2313,212.9274,0.00033516,0.00046636,0.0,0 STARLINK-3990,1 52626U 22052AE  22172.58334491  .00046636  00000-0  33516-3 0  9999,2 52626  53.2129 252.7994 0002624  25.2313 212.9274 15.73176372  1306,6727.9630000000025,91.535,351.593,348.06199999999984,0.0
52626.0,STARLINK-3990,PAYLOAD,2022-06-21 20:00:01,15.73239717,0.0002505,53.2122,251.5613,22.9029,191.9385,-0.00064696,-0.00090617,0.0,0 STARLINK-3990,1 52626U 22052AE  22172.83334491 -.00090617  00000-0 -64696-3 0  9990,2 52626  53.2122 251.5613 0002505  22.9029 191.9385 15.73239717  6363,6727.781999999997,91.531,351.332,347.962,0.0
52626.0,STARLINK-3990,PAYLOAD,2022-06-21 22:00:00,15.73217887,0.0002383,53.2124,251.1483,22.6417,304.4425,-0.00047761,-0.00067179,0.0,0 STARLINK-3990,1 52626U 22052AE  22172.91667824 -.00067179  00000-0 -47761-3 0  9999,2 52626  53.2124 251.1483 0002383  22.6417 304.4425 15.73217887  1307,6727.844,91.532,351.31199999999984,348.106,0.0
52626.0,STARLINK-3990,PAYLOAD,2022-06-22 12:00:00,15.73205838,0.00025,53.2173,248.2595,22.2998,10.2811,-2.0094e-05,-3.442e-05,0.0,0 STARLINK-3990,1 52626U 22052AE  22173.50001157 -.00003442  00000-0 -20094-4 0  9990,2 52626  53.2173 248.2595 0002500  22.2998  10.2811 15.73205838  6470,6727.879,91.533,351.425,348.06199999999984,0.0
52626.0,STARLINK-3990,PAYLOAD,2022-06-22 14:00:01,15.73203575,0.0002489,53.2175,247.8474,22.0254,122.7897,1.4673e-05,1.438e-05,0.0,0 STARLINK-3990,1 52626U 22052AE  22173.58334491  .00001438  00000-0  14673-4 0  9995,2 52626  53.2175 247.8474 0002489  22.0254 122.7897 15.73203575  1308,6727.885,91.533,351.425,348.075,0.0
52626.0,STARLINK-3990,PAYLOAD,2022-06-22 22:00:00,15.73214432,0.0002443,53.2132,246.1995,17.3161,216.4766,0.00018749,0.00025791,0.0,0 STARLINK-3990,1 52626U 22052AE  22173.91667824  .00025791  00000-0  18749-3 0  9996,2 52626  53.2132 246.1995 0002443  17.3161 216.4766 15.73214432  6535,6727.854,91.532,351.36300000000006,348.075,0.0
52626.0,STARLINK-3990,PAYLOAD,2022-06-23 12:00:00,15.73197652,0.0002739,53.213,243.3138,22.9123,276.5614,1.0588e-05,8.64e-06,0.0,0 STARLINK-3990,1 52626U 22052AE  22174.50001157  .00000864  00000-0  10588-4 0  9991,2 52626  53.2130 243.3138 0002739  22.9123 276.5614 15.73197652  6622,6727.901999999999,91.533,351.61,347.9240000000001,0.0
52626.0,STARLINK-3990,PAYLOAD,2022-06-23 14:00:01,15.73195756,0.0002771,53.2131,242.9018,22.5525,29.1539,3.5922e-06,-1.18e-06,0.0,0 STARLINK-3990,1 52626U 22052AE  22174.58334491 -.00000118  00000-0  35922-5 0  9992,2 52626  53.2131 242.9018 0002771  22.5525  29.1539 15.73195756  1304,6727.906999999997,91.533,351.63699999999994,347.908,0.0
52626.0,STARLINK-3990,PAYLOAD,2022-06-23 22:00:00,15.73175112,0.000253,53.2127,241.2505,19.9015,120.7407,7.366399999999999e-05,9.719e-05,0.0,0 STARLINK-3990,1 52626U 22052AE  22174.91667824  .00009719  00000-0  73664-4 0  9997,2 52626  53.2127 241.2505 0002530  19.9015 120.7407 15.73175112  1305,6727.965999999999,91.535,351.533,348.129,0.0
52626.0,STARLINK-3990,PAYLOAD,2022-06-24 12:00:00,15.73204751,0.0002658,53.2173,238.3621,19.7343,186.4527,-4.4455e-06,-1.246e-05,0.0,0 STARLINK-3990,1 52626U 22052AE  22175.50001157 -.00001246  00000-0 -44455-5 0  9990,2 52626  53.2173 238.3621 0002658  19.7343 186.4527 15.73204751  6786,6727.882,91.533,351.535,347.958,0.0
52626.0,STARLINK-3990,PAYLOAD,2022-06-24 14:00:01,15.73204157,0.000268,53.2174,237.95,19.0787,299.342,2.3687e-06,-2.9e-06,0.0,0 STARLINK-3990,1 52626U 22052AE  22175.58334491 -.00000290  00000-0  23687-5 0  9999,2 52626  53.2174 237.9500 0002680  19.0787 299.3420 15.73204157  1307,6727.8830000000025,91.533,351.551,347.945,0.0
52626.0,STARLINK-3990,PAYLOAD,2022-06-24 20:00:01,15.73277126,0.0002659,53.213,236.7147,17.796,277.385,-0.00082463,-0.00115187,0.0,0 STARLINK-3990,1 52626U 22052AE  22175.83334491 -.00115187  00000-0 -82463-3 0  9995,2 52626  53.2130 236.7147 0002659  17.7960 277.3850 15.73277126  6839,6727.675,91.529,351.329,347.751,0.0
52626.0,STARLINK-3990,PAYLOAD,2022-06-24 22:00:01,15.73240314,0.000256,53.2133,236.3017,17.3169,30.1866,-0.00045947,-0.00064734,0.0,0 STARLINK-3990,1 52626U 22052AE  22175.91668981 -.00064734  00000-0 -45947-3 0  9995,2 52626  53.2133 236.3017 0002560  17.3169  30.1866 15.73240314  1300,6727.78,91.531,351.36800000000005,347.923,0.0
52626.0,STARLINK-3990,PAYLOAD,2022-06-25 04:00:00,15.73190979,0.0002556,53.2134,235.064,17.9194,6.2244,0.0002277,0.00031446,0.0,0 STARLINK-3990,1 52626U 22052AE  22176.16667824  .00031446  00000-0  22770-3 0  9999,2 52626  53.2134 235.0640 0002556  17.9194   6.2244 15.73190979  6881,6727.920999999999,91.534,351.506,348.066,0.0
52626.0,STARLINK-3990,PAYLOAD,2022-06-25 14:00:01,15.73168777,0.0002873,53.2129,233.0043,13.6804,211.6666,0.00034606,0.00048167,0.0,0 STARLINK-3990,1 52626U 22052AE  22176.58334491  .00048167  00000-0  34606-3 0  9995,2 52626  53.2129 233.0043 0002873  13.6804 211.6666 15.73168777  1306,6727.984,91.535,351.782,347.916,0.0
52626.0,STARLINK-3990,PAYLOAD,2022-06-25 20:00:01,15.7321231,0.0002705,53.2125,231.7658,13.3081,188.7205,-1.033e-05,-2.073e-05,0.0,0 STARLINK-3990,1 52626U 22052AE  22176.83334491 -.00002073  00000-0 -10330-4 0  9990,2 52626  53.2125 231.7658 0002705  13.3081 188.7205 15.73212310  6993,6727.86,91.532,351.545,347.905,0.0
52626.0,STARLINK-3990,PAYLOAD,2022-06-25 22:00:00,15.731960399999998,0.0002612,53.2126,231.3529,13.7227,300.5457,0.00030546,0.00042463,0.0,0 STARLINK-3990,1 52626U 22052AE  22176.91667824  .00042463  00000-0  30546-3 0  9993,2 52626  53.2126 231.3529 0002612  13.7227 300.5457 15.73196040  1304,6727.906,91.533,351.529,348.014,0.0
52626.0,STARLINK-3990,PAYLOAD,2022-06-26 04:00:00,15.73269142,0.0002574,53.2143,230.1154,18.0461,272.9442,-0.00049839,-0.00070206,0.0,0 STARLINK-3990,1 52626U 22052AE  22177.16667824 -.00070206  00000-0 -49839-3 0  9994,2 52626  53.2143 230.1154 0002574  18.0461 272.9442 15.73269142  7046,6727.698,91.529,351.295,347.831,0.0
52626.0,STARLINK-3990,PAYLOAD,2022-06-26 14:00:01,15.73173616,0.0002918,53.2145,228.0556,16.4497,115.8421,0.00021686,0.00029892,0.0,0 STARLINK-3990,1 52626U 22052AE  22177.58335648  .00029892  00000-0  21686-3 0  9999,2 52626  53.2145 228.0556 0002918  16.4497 115.8421 15.73173616  1308,6727.97,91.535,351.7990000000001,347.872,0.0
52626.0,STARLINK-3990,PAYLOAD,2022-06-26 20:00:01,15.73184355,0.0002796,53.2146,226.817,16.8828,92.0188,7.9704e-05,0.00010572,0.0,0 STARLINK-3990,1 52626U 22052AE  22177.83334491  .00010572  00000-0  79704-4 0  9992,2 52626  53.2146 226.8170 0002796  16.8828  92.0188 15.73184355  7150,6727.94,91.534,351.686,347.9240000000001,0.0
52626.0,STARLINK-3990,PAYLOAD,2022-06-26 22:00:00,15.73173393,0.0002761,53.2147,226.4041,17.692999999999994,203.4403,0.00030828,0.00042821,0.0,0 STARLINK-3990,1 52626U 22052AE  22177.91667824  .00042821  00000-0  30828-3 0  9995,2 52626  53.2147 226.4041 0002761  17.6930 203.4403 15.73173393  1308,6727.971,91.535,351.694,347.978,0.0
52626.0,STARLINK-3990,PAYLOAD,2022-06-27 12:00:00,15.73167048,0.00031,53.2144,223.5195,22.251,264.4754,-0.00025435,-0.00036125,0.0,0 STARLINK-3990,1 52626U 22052AE  22178.50001157 -.00036125  00000-0 -25435-3 0  9992,2 52626  53.2144 223.5195 0003100  22.2510 264.4754 15.73167048  7253,6727.989000000001,91.535,351.94,347.76800000000014,0.0
52626.0,STARLINK-3990,PAYLOAD,2022-06-27 14:00:01,15.73155316,0.0003106,53.2141,223.1071,20.8865,18.0631,-0.0001571,-0.00022575,0.0,0 STARLINK-3990,1 52626U 22052AE  22178.58334491 -.00022575  00000-0 -15710-3 0  9999,2 52626  53.2141 223.1071 0003106  20.8865  18.0631 15.73155316  1304,6728.023,91.536,351.977,347.798,0.0
52626.0,STARLINK-3990,PAYLOAD,2022-06-27 22:00:00,15.73114068,0.0002803,53.2139,221.4558,20.2294,107.6025,0.00045906,0.00064069,0.0,0 STARLINK-3990,1 52626U 22052AE  22178.91667824  .00064069  00000-0  45906-3 0  9997,2 52626  53.2139 221.4558 0002803  20.2294 107.6025 15.73114068  1306,6728.14,91.538,351.891,348.119,0.0
52626.0,STARLINK-3990,PAYLOAD,2022-06-28 04:00:00,15.73150024,0.0002798,53.2141,220.2188,23.0067,81.4429,0.00022475,0.00030974,0.0,0 STARLINK-3990,1 52626U 22052AE  22179.16667824  .00030974  00000-0  22475-3 0  9999,2 52626  53.2141 220.2188 0002798  23.0067  81.4429 15.73150024  7368,6728.038000000001,91.536,351.785,348.02,0.0
